[
    {
        "Altitude(m)": 553533.1915371364,
        "Argument of Periapsis(deg)": 0.019868973332140504,
        "Eccentricity": 0.0,
        "Inclination(deg)": 53.0,
        "Latitude(deg)": 15.38773259625999,
        "Longitude(deg)": -45.47737939266728,
        "Mean Anomaly(deg)": 19.365778602732753,
        "RAAN(deg)": 44.97043010558405,
        "Satellite Name": "Starlink Shell 1 219",
        "Satellite Number": 219,
        "Semi-Major Axis(m)": 6931778.249405717,
        "Time(s)": 570
    },
    {
        "Altitude(m)": 553552.3828185082,
        "Argument of Periapsis(deg)": 0.02021755181165174,
        "Eccentricity": 0.0,
        "Inclination(deg)": 53.0,
        "Latitude(deg)": 15.880295299544011,
        "Longitude(deg)": -45.11257300808565,
        "Mean Anomaly(deg)": 19.992609806289416,
        "RAAN(deg)": 44.96991133550658,
        "Satellite Name": "Starlink Shell 1 219",
        "Satellite Number": 219,
        "Semi-Major Axis(m)": 6931778.249405717,
        "Time(s)": 580
    },
    {
        "Altitude(m)": 553573.9643460134,
        "Argument of Periapsis(deg)": 0.020566130291162974,
        "Eccentricity": 0.0,
        "Inclination(deg)": 53.0,
        "Latitude(deg)": 16.37207333415923,
        "Longitude(deg)": -44.74578815651544,
        "Mean Anomaly(deg)": 20.619441009846177,
        "RAAN(deg)": 44.969392565429104,
        "Satellite Name": "Starlink Shell 1 219",
        "Satellite Number": 219,
        "Semi-Major Axis(m)": 6931778.249405717,
        "Time(s)": 590
    },
    {
        "Altitude(m)": 553597.9034715494,
        "Argument of Periapsis(deg)": 0.020914708770674213,
        "Eccentricity": 0.0,
        "Inclination(deg)": 53.0,
        "Latitude(deg)": 16.863037083116566,
        "Longitude(deg)": -44.37695371797454,
        "Mean Anomaly(deg)": 21.246272213402893,
        "RAAN(deg)": 44.968873795351634,
        "Satellite Name": "Starlink Shell 1 219",
        "Satellite Number": 219,
        "Semi-Major Axis(m)": 6931778.249405717,
        "Time(s)": 600
    },
    {
        "Altitude(m)": 553624.1665004509,
        "Argument of Periapsis(deg)": 0.021263287250185448,
        "Eccentricity": 0.0,
        "Inclination(deg)": 53.0,
        "Latitude(deg)": 17.35315647431994,
        "Longitude(deg)": -44.00599770987633,
        "Mean Anomaly(deg)": 21.87310341695954,
        "RAAN(deg)": 44.968355025274164,
        "Satellite Name": "Starlink Shell 1 219",
        "Satellite Number": 219,
        "Semi-Major Axis(m)": 6931778.249405717,
        "Time(s)": 610
    },
    {
        "Altitude(m)": 553652.718710823,
        "Argument of Periapsis(deg)": 0.021611865729696686,
        "Eccentricity": 0.0,
        "Inclination(deg)": 53.0,
        "Latitude(deg)": 17.842400962336367,
        "Longitude(deg)": -43.63284675604357,
        "Mean Anomaly(deg)": 22.499934620516353,
        "RAAN(deg)": 44.96783625519669,
        "Satellite Name": "Starlink Shell 1 219",
        "Satellite Number": 219,
        "Semi-Major Axis(m)": 6931778.249405717,
        "Time(s)": 620
    },
    {
        "Altitude(m)": 553683.5243733646,
        "Argument of Periapsis(deg)": 0.02196044420920792,
        "Eccentricity": 0.0,
        "Inclination(deg)": 53.0,
        "Latitude(deg)": 18.330739509756782,
        "Longitude(deg)": -43.25742723684327,
        "Mean Anomaly(deg)": 23.126765824073015,
        "RAAN(deg)": 44.96731748511921,
        "Satellite Name": "Starlink Shell 1 219",
        "Satellite Number": 219,
        "Semi-Major Axis(m)": 6931778.249405717,
        "Time(s)": 630
    },
    {
        "Altitude(m)": 553716.5467716876,
        "Argument of Periapsis(deg)": 0.02230902268871916,
        "Eccentricity": 0.0,
        "Inclination(deg)": 53.0,
        "Latitude(deg)": 18.81814056814259,
        "Longitude(deg)": -42.87966391805609,
        "Mean Anomaly(deg)": 23.75359702762972,
        "RAAN(deg)": 44.96679871504174,
        "Satellite Name": "Starlink Shell 1 219",
        "Satellite Number": 219,
        "Semi-Major Axis(m)": 6931778.249405717,
        "Time(s)": 640
    },
    {
        "Altitude(m)": 553751.7482230815,
        "Argument of Periapsis(deg)": 0.022657601168230398,
        "Eccentricity": 0.0,
        "Inclination(deg)": 53.0,
        "Latitude(deg)": 19.30457205853744,
        "Longitude(deg)": -42.499481101434846,
        "Mean Anomaly(deg)": 24.380428231186436,
        "RAAN(deg)": 44.96627994496427,
        "Satellite Name": "Starlink Shell 1 219",
        "Satellite Number": 219,
        "Semi-Major Axis(m)": 6931778.249405717,
        "Time(s)": 650
    },
    {
        "Altitude(m)": 553789.0900997581,
        "Argument of Periapsis(deg)": 0.023006179647741636,
        "Eccentricity": 0.0,
        "Inclination(deg)": 53.0,
        "Latitude(deg)": 19.790001351540138,
        "Longitude(deg)": -42.116802094573266,
        "Mean Anomaly(deg)": 25.00725943474314,
        "RAAN(deg)": 44.965761174886794,
        "Satellite Name": "Starlink Shell 1 219",
        "Satellite Number": 219,
        "Semi-Major Axis(m)": 6931778.249405717,
        "Time(s)": 660
    },
    {
        "Altitude(m)": 553828.5328505132,
        "Argument of Periapsis(deg)": 0.023354758127252868,
        "Eccentricity": 0.0,
        "Inclination(deg)": 53.0,
        "Latitude(deg)": 20.27439524692448,
        "Longitude(deg)": -41.73154868110842,
        "Mean Anomaly(deg)": 25.6340906382999,
        "RAAN(deg)": 44.965242404809324,
        "Satellite Name": "Starlink Shell 1 219",
        "Satellite Number": 219,
        "Semi-Major Axis(m)": 6931778.249405717,
        "Time(s)": 670
    },
    {
        "Altitude(m)": 553870.0360228546,
        "Argument of Periapsis(deg)": 0.023703336606764106,
        "Eccentricity": 0.0,
        "Inclination(deg)": 53.0,
        "Latitude(deg)": 20.757719952793437,
        "Longitude(deg)": -41.34364210418661,
        "Mean Anomaly(deg)": 26.260921841856618,
        "RAAN(deg)": 44.96472363473185,
        "Satellite Name": "Starlink Shell 1 219",
        "Satellite Number": 219,
        "Semi-Major Axis(m)": 6931778.249405717,
        "Time(s)": 680
    },
    {
        "Altitude(m)": 553913.558285512,
        "Argument of Periapsis(deg)": 0.024051915086275345,
        "Eccentricity": 0.0,
        "Inclination(deg)": 53.0,
        "Latitude(deg)": 21.23994106426174,
        "Longitude(deg)": -40.95300253751017,
        "Mean Anomaly(deg)": 26.887753045413266,
        "RAAN(deg)": 44.96420486465438,
        "Satellite Name": "Starlink Shell 1 219",
        "Satellite Number": 219,
        "Semi-Major Axis(m)": 6931778.249405717,
        "Time(s)": 690
    },
    {
        "Altitude(m)": 553959.0574513944,
        "Argument of Periapsis(deg)": 0.024400493565786583,
        "Eccentricity": 0.0,
        "Inclination(deg)": 53.0,
        "Latitude(deg)": 21.72102354165487,
        "Longitude(deg)": -40.55954855690688,
        "Mean Anomaly(deg)": 27.51458424897004,
        "RAAN(deg)": 44.9636860945769,
        "Satellite Name": "Starlink Shell 1 219",
        "Satellite Number": 219,
        "Semi-Major Axis(m)": 6931778.249405717,
        "Time(s)": 700
    },
    {
        "Altitude(m)": 554006.49050091,
        "Argument of Periapsis(deg)": 0.024749072045297815,
        "Eccentricity": 0.0,
        "Inclination(deg)": 53.0,
        "Latitude(deg)": 22.20093168821287,
        "Longitude(deg)": -40.163198125370556,
        "Mean Anomaly(deg)": 28.14141545252669,
        "RAAN(deg)": 44.96316732449943,
        "Satellite Name": "Starlink Shell 1 219",
        "Satellite Number": 219,
        "Semi-Major Axis(m)": 6931778.249405717,
        "Time(s)": 710
    },
    {
        "Altitude(m)": 554055.8136056905,
        "Argument of Periapsis(deg)": 0.025097650524809053,
        "Eccentricity": 0.0,
        "Inclination(deg)": 53.0,
        "Latitude(deg)": 22.67962912729615,
        "Longitude(deg)": -39.76386806590683,
        "Mean Anomaly(deg)": 28.768246656083456,
        "RAAN(deg)": 44.96264855442196,
        "Satellite Name": "Starlink Shell 1 219",
        "Satellite Number": 219,
        "Semi-Major Axis(m)": 6931778.249405717,
        "Time(s)": 720
    },
    {
        "Altitude(m)": 554106.9821526749,
        "Argument of Periapsis(deg)": 0.02544622900432029,
        "Eccentricity": 0.0,
        "Inclination(deg)": 53.0,
        "Latitude(deg)": 23.15707877908121,
        "Longitude(deg)": -39.36147353514913,
        "Mean Anomaly(deg)": 29.39507785964016,
        "RAAN(deg)": 44.962129784344484,
        "Satellite Name": "Starlink Shell 1 219",
        "Satellite Number": 219,
        "Semi-Major Axis(m)": 6931778.249405717,
        "Time(s)": 730
    },
    {
        "Altitude(m)": 554159.9507685679,
        "Argument of Periapsis(deg)": 0.02579480748383153,
        "Eccentricity": 0.0,
        "Inclination(deg)": 53.0,
        "Latitude(deg)": 23.63324283674009,
        "Longitude(deg)": -38.95592901071097,
        "Mean Anomaly(deg)": 30.021909063196865,
        "RAAN(deg)": 44.961611014267014,
        "Satellite Name": "Starlink Shell 1 219",
        "Satellite Number": 219,
        "Semi-Major Axis(m)": 6931778.249405717,
        "Time(s)": 740
    },
    {
        "Altitude(m)": 554214.6733446068,
        "Argument of Periapsis(deg)": 0.026143385963342765,
        "Eccentricity": 0.0,
        "Inclination(deg)": 53.0,
        "Latitude(deg)": 24.108082742099967,
        "Longitude(deg)": -38.547147766635135,
        "Mean Anomaly(deg)": 30.648740266753634,
        "RAAN(deg)": 44.961092244189544,
        "Satellite Name": "Starlink Shell 1 219",
        "Satellite Number": 219,
        "Semi-Major Axis(m)": 6931778.249405717,
        "Time(s)": 750
    }
]